<?xml version="1.0" encoding="UTF-8"?>
<ndm xmlns:xsi="http://www.w3.org/2001/XMLSchema-instance" xsi:noNamespaceSchemaLocation="https://sanaregistry.org/r/ndmxml_unqualified/ndmxml-2.0.0-master-2.0.xsd">
<omm id="CCSDS_OMM_VERS" version="2.0">
<header><CREATION_DATE/><ORIGINATOR/></header><body><segment><metadata><OBJECT_NAME>ORBCOMM FM05</OBJECT_NAME><OBJECT_ID>1997-084F</OBJECT_ID><CENTER_NAME>EARTH</CENTER_NAME><REF_FRAME>TEME</REF_FRAME><TIME_SYSTEM>UTC</TIME_SYSTEM><MEAN_ELEMENT_THEORY>SGP4</MEAN_ELEMENT_THEORY></metadata><data><meanElements><EPOCH>2025-02-21T17:49:27.660864</EPOCH><MEAN_MOTION>14.45228886</MEAN_MOTION><ECCENTRICITY>.0000826</ECCENTRICITY><INCLINATION>45.0129</INCLINATION><RA_OF_ASC_NODE>202.1020</RA_OF_ASC_NODE><ARG_OF_PERICENTER>300.3160</ARG_OF_PERICENTER><MEAN_ANOMALY>59.7610</MEAN_ANOMALY></meanElements><tleParameters><EPHEMERIS_TYPE>0</EPHEMERIS_TYPE><CLASSIFICATION_TYPE>U</CLASSIFICATION_TYPE><NORAD_CAT_ID>25117</NORAD_CAT_ID><ELEMENT_SET_NO>999</ELEMENT_SET_NO><REV_AT_EPOCH>42390</REV_AT_EPOCH><BSTAR>.99918E-3</BSTAR><MEAN_MOTION_DOT>.3393E-4</MEAN_MOTION_DOT><MEAN_MOTION_DDOT>0</MEAN_MOTION_DDOT></tleParameters></data></segment></body></omm>
<omm id="CCSDS_OMM_VERS" version="2.0">
<header><CREATION_DATE/><ORIGINATOR/></header><body><segment><metadata><OBJECT_NAME>ORBCOMM FM06</OBJECT_NAME><OBJECT_ID>1997-084G</OBJECT_ID><CENTER_NAME>EARTH</CENTER_NAME><REF_FRAME>TEME</REF_FRAME><TIME_SYSTEM>UTC</TIME_SYSTEM><MEAN_ELEMENT_THEORY>SGP4</MEAN_ELEMENT_THEORY></metadata><data><meanElements><EPOCH>2025-02-21T18:35:36.685824</EPOCH><MEAN_MOTION>14.45394527</MEAN_MOTION><ECCENTRICITY>.0000777</ECCENTRICITY><INCLINATION>45.0122</INCLINATION><RA_OF_ASC_NODE>201.8203</RA_OF_ASC_NODE><ARG_OF_PERICENTER>223.0778</ARG_OF_PERICENTER><MEAN_ANOMALY>286.9277</MEAN_ANOMALY></meanElements><tleParameters><EPHEMERIS_TYPE>0</EPHEMERIS_TYPE><CLASSIFICATION_TYPE>U</CLASSIFICATION_TYPE><NORAD_CAT_ID>25118</NORAD_CAT_ID><ELEMENT_SET_NO>999</ELEMENT_SET_NO><REV_AT_EPOCH>42482</REV_AT_EPOCH><BSTAR>.93601E-3</BSTAR><MEAN_MOTION_DOT>.3181E-4</MEAN_MOTION_DOT><MEAN_MOTION_DDOT>0</MEAN_MOTION_DDOT></tleParameters></data></segment></body></omm>
<omm id="CCSDS_OMM_VERS" version="2.0">
<header><CREATION_DATE/><ORIGINATOR/></header><body><segment><metadata><OBJECT_NAME>ORBCOMM FM07</OBJECT_NAME><OBJECT_ID>1997-084H</OBJECT_ID><CENTER_NAME>EARTH</CENTER_NAME><REF_FRAME>TEME</REF_FRAME><TIME_SYSTEM>UTC</TIME_SYSTEM><MEAN_ELEMENT_THEORY>SGP4</MEAN_ELEMENT_THEORY></metadata><data><meanElements><EPOCH>2025-02-21T18:10:54.759072</EPOCH><MEAN_MOTION>14.45334230</MEAN_MOTION><ECCENTRICITY>.0001592</ECCENTRICITY><INCLINATION>45.0117</INCLINATION><RA_OF_ASC_NODE>202.6552</RA_OF_ASC_NODE><ARG_OF_PERICENTER>311.2978</ARG_OF_PERICENTER><MEAN_ANOMALY>48.7736</MEAN_ANOMALY></meanElements><tleParameters><EPHEMERIS_TYPE>0</EPHEMERIS_TYPE><CLASSIFICATION_TYPE>U</CLASSIFICATION_TYPE><NORAD_CAT_ID>25119</NORAD_CAT_ID><ELEMENT_SET_NO>999</ELEMENT_SET_NO><REV_AT_EPOCH>42481</REV_AT_EPOCH><BSTAR>.10492E-2</BSTAR><MEAN_MOTION_DOT>.3579E-4</MEAN_MOTION_DOT><MEAN_MOTION_DDOT>0</MEAN_MOTION_DDOT></tleParameters></data></segment></body></omm>
<omm id="CCSDS_OMM_VERS" version="2.0">
<header><CREATION_DATE/><ORIGINATOR/></header><body><segment><metadata><OBJECT_NAME>ORBCOMM FM03</OBJECT_NAME><OBJECT_ID>1998-007B</OBJECT_ID><CENTER_NAME>EARTH</CENTER_NAME><REF_FRAME>TEME</REF_FRAME><TIME_SYSTEM>UTC</TIME_SYSTEM><MEAN_ELEMENT_THEORY>SGP4</MEAN_ELEMENT_THEORY></metadata><data><meanElements><EPOCH>2025-02-21T20:07:44.425632</EPOCH><MEAN_MOTION>14.34034354</MEAN_MOTION><ECCENTRICITY>.0043487</ECCENTRICITY><INCLINATION>107.9710</INCLINATION><RA_OF_ASC_NODE>258.7163</RA_OF_ASC_NODE><ARG_OF_PERICENTER>90.7398</ARG_OF_PERICENTER><MEAN_ANOMALY>269.8725</MEAN_ANOMALY></meanElements><tleParameters><EPHEMERIS_TYPE>0</EPHEMERIS_TYPE><CLASSIFICATION_TYPE>U</CLASSIFICATION_TYPE><NORAD_CAT_ID>25158</NORAD_CAT_ID><ELEMENT_SET_NO>999</ELEMENT_SET_NO><REV_AT_EPOCH>40750</REV_AT_EPOCH><BSTAR>.70109E-3</BSTAR><MEAN_MOTION_DOT>.1851E-4</MEAN_MOTION_DOT><MEAN_MOTION_DDOT>0</MEAN_MOTION_DDOT></tleParameters></data></segment></body></omm>
<omm id="CCSDS_OMM_VERS" version="2.0">
<header><CREATION_DATE/><ORIGINATOR/></header><body><segment><metadata><OBJECT_NAME>ORBCOMM FM04</OBJECT_NAME><OBJECT_ID>1998-007C</OBJECT_ID><CENTER_NAME>EARTH</CENTER_NAME><REF_FRAME>TEME</REF_FRAME><TIME_SYSTEM>UTC</TIME_SYSTEM><MEAN_ELEMENT_THEORY>SGP4</MEAN_ELEMENT_THEORY></metadata><data><meanElements><EPOCH>2025-02-21T20:14:26.535552</EPOCH><MEAN_MOTION>14.34296840</MEAN_MOTION><ECCENTRICITY>.003922</ECCENTRICITY><INCLINATION>107.9695</INCLINATION><RA_OF_ASC_NODE>261.8689</RA_OF_ASC_NODE><ARG_OF_PERICENTER>87.9690</ARG_OF_PERICENTER><MEAN_ANOMALY>272.5941</MEAN_ANOMALY></meanElements><tleParameters><EPHEMERIS_TYPE>0</EPHEMERIS_TYPE><CLASSIFICATION_TYPE>U</CLASSIFICATION_TYPE><NORAD_CAT_ID>25159</NORAD_CAT_ID><ELEMENT_SET_NO>999</ELEMENT_SET_NO><REV_AT_EPOCH>40768</REV_AT_EPOCH><BSTAR>.69384E-3</BSTAR><MEAN_MOTION_DOT>.1837E-4</MEAN_MOTION_DOT><MEAN_MOTION_DDOT>0</MEAN_MOTION_DDOT></tleParameters></data></segment></body></omm>
<omm id="CCSDS_OMM_VERS" version="2.0">
<header><CREATION_DATE/><ORIGINATOR/></header><body><segment><metadata><OBJECT_NAME>ORBCOMM FM17</OBJECT_NAME><OBJECT_ID>1998-046A</OBJECT_ID><CENTER_NAME>EARTH</CENTER_NAME><REF_FRAME>TEME</REF_FRAME><TIME_SYSTEM>UTC</TIME_SYSTEM><MEAN_ELEMENT_THEORY>SGP4</MEAN_ELEMENT_THEORY></metadata><data><meanElements><EPOCH>2025-02-21T13:08:22.169184</EPOCH><MEAN_MOTION>14.34687171</MEAN_MOTION><ECCENTRICITY>.0003758</ECCENTRICITY><INCLINATION>44.9936</INCLINATION><RA_OF_ASC_NODE>83.2269</RA_OF_ASC_NODE><ARG_OF_PERICENTER>312.1771</ARG_OF_PERICENTER><MEAN_ANOMALY>47.8757</MEAN_ANOMALY></meanElements><tleParameters><EPHEMERIS_TYPE>0</EPHEMERIS_TYPE><CLASSIFICATION_TYPE>U</CLASSIFICATION_TYPE><NORAD_CAT_ID>25413</NORAD_CAT_ID><ELEMENT_SET_NO>999</ELEMENT_SET_NO><REV_AT_EPOCH>38656</REV_AT_EPOCH><BSTAR>.75056E-3</BSTAR><MEAN_MOTION_DOT>.2003E-4</MEAN_MOTION_DOT><MEAN_MOTION_DDOT>0</MEAN_MOTION_DDOT></tleParameters></data></segment></body></omm>
<omm id="CCSDS_OMM_VERS" version="2.0">
<header><CREATION_DATE/><ORIGINATOR/></header><body><segment><metadata><OBJECT_NAME>ORBCOMM FM18</OBJECT_NAME><OBJECT_ID>1998-046B</OBJECT_ID><CENTER_NAME>EARTH</CENTER_NAME><REF_FRAME>TEME</REF_FRAME><TIME_SYSTEM>UTC</TIME_SYSTEM><MEAN_ELEMENT_THEORY>SGP4</MEAN_ELEMENT_THEORY></metadata><data><meanElements><EPOCH>2025-02-21T21:53:16.266912</EPOCH><MEAN_MOTION>14.37985704</MEAN_MOTION><ECCENTRICITY>.0004737</ECCENTRICITY><INCLINATION>44.9940</INCLINATION><RA_OF_ASC_NODE>1.9267</RA_OF_ASC_NODE><ARG_OF_PERICENTER>37.7453</ARG_OF_PERICENTER><MEAN_ANOMALY>322.3727</MEAN_ANOMALY></meanElements><tleParameters><EPHEMERIS_TYPE>0</EPHEMERIS_TYPE><CLASSIFICATION_TYPE>U</CLASSIFICATION_TYPE><NORAD_CAT_ID>25414</NORAD_CAT_ID><ELEMENT_SET_NO>999</ELEMENT_SET_NO><REV_AT_EPOCH>38765</REV_AT_EPOCH><BSTAR>.99717E-3</BSTAR><MEAN_MOTION_DOT>.2902E-4</MEAN_MOTION_DOT><MEAN_MOTION_DDOT>0</MEAN_MOTION_DDOT></tleParameters></data></segment></body></omm>
<omm id="CCSDS_OMM_VERS" version="2.0">
<header><CREATION_DATE/><ORIGINATOR/></header><body><segment><metadata><OBJECT_NAME>ORBCOMM FM19</OBJECT_NAME><OBJECT_ID>1998-046C</OBJECT_ID><CENTER_NAME>EARTH</CENTER_NAME><REF_FRAME>TEME</REF_FRAME><TIME_SYSTEM>UTC</TIME_SYSTEM><MEAN_ELEMENT_THEORY>SGP4</MEAN_ELEMENT_THEORY></metadata><data><meanElements><EPOCH>2025-02-21T14:21:12.880800</EPOCH><MEAN_MOTION>14.37794120</MEAN_MOTION><ECCENTRICITY>.0003883</ECCENTRICITY><INCLINATION>44.9949</INCLINATION><RA_OF_ASC_NODE>5.2325</RA_OF_ASC_NODE><ARG_OF_PERICENTER>21.9950</ARG_OF_PERICENTER><MEAN_ANOMALY>147.4898</MEAN_ANOMALY></meanElements><tleParameters><EPHEMERIS_TYPE>0</EPHEMERIS_TYPE><CLASSIFICATION_TYPE>U</CLASSIFICATION_TYPE><NORAD_CAT_ID>25415</NORAD_CAT_ID><ELEMENT_SET_NO>999</ELEMENT_SET_NO><REV_AT_EPOCH>38756</REV_AT_EPOCH><BSTAR>.9925E-3</BSTAR><MEAN_MOTION_DOT>.2876E-4</MEAN_MOTION_DOT><MEAN_MOTION_DDOT>0</MEAN_MOTION_DDOT></tleParameters></data></segment></body></omm>

</ndm>
