ORBCOMM FM05            
1 25117U 97084F   25052.74268126  .00003393  00000+0  99918-3 0  9990
2 25117  45.0129 202.1020 0000826 300.3160  59.7610 14.45228886423909
ORBCOMM FM06            
1 25118U 97084G   25052.77473016  .00003181  00000+0  93601-3 0  9998
2 25118  45.0122 201.8203 0000777 223.0778 286.9277 14.45394527424824
ORBCOMM FM07            
1 25119U 97084H   25052.75757823  .00003579  00000+0  10492-2 0  9995
2 25119  45.0117 202.6552 0001592 311.2978  48.7736 14.45334230424811
ORBCOMM FM03            
1 25158U 98007B   25052.83870863  .00001851  00000+0  70109-3 0  9996
2 25158 107.9710 258.7163 0043487  90.7398 269.8725 14.34034354407508
ORBCOMM FM04            
1 25159U 98007C   25052.84336268  .00001837  00000+0  69384-3 0  9991
2 25159 107.9695 261.8689 0039220  87.9690 272.5941 14.34296840407682
ORBCOMM FM17            
1 25413U 98046A   25052.54747881  .00002003  00000+0  75056-3 0  9990
2 25413  44.9936  83.2269 0003758 312.1771  47.8757 14.34687171386565
ORBCOMM FM18            
1 25414U 98046B   25052.91199383  .00002902  00000+0  99717-3 0  9998
2 25414  44.9940   1.9267 0004737  37.7453 322.3727 14.37985704387656
ORBCOMM FM19            
1 25415U 98046C   25052.59806575  .00002876  00000+0  99250-3 0  9993
2 25415  44.9949   5.2325 0003883  21.9950 147.4898 14.37794120387561
